[{"OBJECT_NAME":"A-SEANSAT-PG1","OBJECT_ID":"2023-091AH","EPOCH":"2026-03-09T22:32:06.495648","MEAN_MOTION":15.33422293,"ECCENTRICITY":0.00088895,"INCLINATION":97.5184,"RA_OF_ASC_NODE":136.6191,"ARG_OF_PERICENTER":78.3219,"MEAN_ANOMALY":281.902,"EPHEMERIS_TYPE":0,"CLASSIFICATION_TYPE":"U","NORAD_CAT_ID":57197,"ELEMENT_SET_NO":999,"REV_AT_EPOCH":14948,"BSTAR":0.0007038551,"MEAN_MOTION_DOT":0.00022724,"MEAN_MOTION_DDOT":0},{"OBJECT_NAME":"STARLINK-31484","OBJECT_ID":"2024-036H","EPOCH":"2026-03-09T08:17:51.671616","MEAN_MOTION":15.30188299,"ECCENTRICITY":6.44e-6,"INCLINATION":53.16,"RA_OF_ASC_NODE":79.5068,"ARG_OF_PERICENTER":214.6339,"MEAN_ANOMALY":145.4658,"EPHEMERIS_TYPE":0,"CLASSIFICATION_TYPE":"U","NORAD_CAT_ID":59005,"ELEMENT_SET_NO":999,"REV_AT_EPOCH":11527,"BSTAR":-3.5185123e-5,"MEAN_MOTION_DOT":-1.4e-5,"MEAN_MOTION_DDOT":0}]
